NOOR-3                  
1 57962U 23150A   23300.22011657  .00048011  00000+0  11434-2 0  9990
2 57962  60.0137 238.1698 0010307 325.3358  34.7057 15.41224115  4584
QASED R/B               
1 57963U 23150B   23300.19430337  .00027035  00000+0  70447-3 0  9990
2 57963  60.0183 238.6430 0010037 276.4127  83.5817 15.38734554  4614
STARLINK-30396          
1 57964U 23151A   23299.66667824 -.02049725  00000+0 -45204-1 0  9999
2 57964  42.9997  13.6009 0001488 278.9884 327.6068 15.46575536  5429
STARLINK-30524          
1 57965U 23151B   23299.66667824 -.02049971  00000+0 -44500-1 0  9991
2 57965  42.9996  13.5978 0001428 279.7419 328.1973 15.47028731  5376
STARLINK-30521          
1 57966U 23151C   23299.66667824 -.02049395  00000+0 -43089-1 0  9993
2 57966  42.9997  13.5935 0001637 270.4428 339.6955 15.47934564  5424
STARLINK-30528          
1 57967U 23151D   23299.66667824 -.02049841  00000+0 -43794-1 0  9993
2 57967  42.9997  13.5956 0001510 275.6574 333.4629 15.47481698  5477
STARLINK-30495          
1 57968U 23151E   23299.66667824 -.02050063  00000+0 -42455-1 0  9995
2 57968  42.9996  13.5911 0001760 274.0665 336.9630 15.48363474  5370
STARLINK-30484          
1 57969U 23151F   23299.66667824 -.02160633  00000+0 -44185-1 0  9993
2 57969  42.9997  13.5889 0001831 278.0872 333.5840 15.48906595  5327
STARLINK-30494          
1 57970U 23151G   23299.66667824  .00056412  00000+0  10198-2 0  9998
2 57970  42.9997  13.5875 0001489 275.3690 336.9086 15.48881305  5376
STARLINK-30498          
1 57971U 23151H   23299.66667824  .00019455  00000+0  35705-3 0  9997
2 57971  42.9996  13.5865 0001786 261.9726 350.8857 15.48903120  5322
STARLINK-30505          
1 57972U 23151J   23299.66667824  .00014242  00000+0  26315-3 0  9994
2 57972  42.9997  13.5833 0001707 295.0752 318.9616 15.48906537  5423
STARLINK-30502          
1 57973U 23151K   23299.66667824  .00019135  00000+0  35129-3 0  9994
2 57973  42.9998  13.5871 0001755 279.7924 333.6557 15.48903453  5422
STARLINK-30489          
1 57974U 23151L   23299.66667824 -.01534050  00000+0 -31801-1 0  9997
2 57974  43.0000  13.5742 0001205 270.9464 347.0342 15.47927220  5381
STARLINK-30503          
1 57975U 23151M   23299.66667824 -.01538187  00000+0 -31870-1 0  9999
2 57975  43.0000  13.5713 0001389 277.2582 341.9436 15.47948796  5427
STARLINK-30512          
1 57976U 23151N   23299.66667824 -.01535414  00000+0 -31818-1 0  9992
2 57976  42.9999  13.5734 0001437 271.1184 347.4768 15.47938099  5324
STARLINK-30509          
1 57977U 23151P   23299.66667824 -.02046953  00000+0 -55576-1 0  9996
2 57977  42.9998  13.9160 0001179 289.3611 189.1616 15.40490996  5369
STARLINK-30511          
1 57978U 23151Q   23299.66667824 -.02050338  00000+0 -54043-1 0  9997
2 57978  42.9997  13.8970 0001266 286.2817 199.5584 15.41378785  5415
STARLINK-30508          
1 57979U 23151R   23299.66667824 -.02049868  00000+0 -53227-1 0  9997
2 57979  42.9997  13.8892 0001341 290.1577 199.1075 15.41821552  5371
STARLINK-30504          
1 57980U 23151S   23299.66667824 -.02050281  00000+0 -54853-1 0  9996
2 57980  42.9997  13.9069 0001222 284.6886 197.5705 15.40935808  5426
STARLINK-30510          
1 57981U 23151T   23299.66667824 -.02051552  00000+0 -52482-1 0  9995
2 57981  42.9997  13.8808 0001352 289.1363 203.3984 15.42265462  5374
STARLINK-30507          
1 57982U 23151U   23299.66667824 -.02050560  00000+0 -51675-1 0  9997
2 57982  42.9998  13.8736 0001227 287.3251 208.3244 15.42707235  5411
STARLINK-30515          
1 57983U 23151V   23299.66667824 -.02051091  00000+0 -50916-1 0  9995
2 57983  42.9997  13.8666 0001242 288.3377 210.2699 15.43150417  5365
STARLINK-30516          
1 57984U 23151W   23299.66667824 -.02051933  00000+0 -50173-1 0  9996
2 57984  42.9996  13.8593 0001299 290.5906 210.8192 15.43594008  5428
STARLINK-30519          
1 57985U 23151X   23299.66667824 -.02050574  00000+0 -49385-1 0  9990
2 57985  42.9996  13.8516 0001179 288.3829 215.6744 15.44035589  5364
YAOGAN-39 03A           
1 57986U 23152A   23293.22469582  .00025196  00000+0  10167-2 0  9994
2 57986  34.9968 259.1991 0005804  33.4635  96.3944 15.23872752  2316
CZ-2D R/B               
1 57987U 23152B   23284.61610361  .00043881  00000+0  17661-2 0  9998
2 57987  34.9990 313.3747 0008407 323.4273  36.5959 15.23836801  1008
YAOGAN-39 03B           
1 57988U 23152C   23299.18716649  .00014182  00000+0  57176-3 0  9991
2 57988  34.9958 221.6211 0005338 110.0412  34.2847 15.23993477  3225
CZ-2D DEB               
1 57989U 23152D   23295.31091551  .00047338  00000+0  18279-2 0  9990
2 57989  34.9993 245.9155 0006295  81.4749  47.0850 15.25215178  2646
YAOGAN-39 03C           
1 57990U 23152E   23295.31706227  .00024298  00000+0  97865-3 0  9994
2 57990  34.9962 245.9686 0007983  72.7317  54.9598 15.23927622  2606
STARLINK-30537          
1 57991U 23153A   23299.66667824 -.01661244  00000+0 -17178-1 0  9995
2 57991  42.9997 103.2736 0001397 286.0130 204.2522 15.67002404  4274
